[{"OBJECT_NAME":"IRIDIUM 174","OBJECT_ID":"2023-068U","EPOCH":"2026-03-09T22:04:44.769504","MEAN_MOTION":14.7225064,"ECCENTRICITY":0.00025981,"INCLINATION":86.6101,"RA_OF_ASC_NODE":35.1661,"ARG_OF_PERICENTER":80.0805,"MEAN_ANOMALY":280.0705,"EPHEMERIS_TYPE":0,"CLASSIFICATION_TYPE":"U","NORAD_CAT_ID":56728,"ELEMENT_SET_NO":999,"REV_AT_EPOCH":15141,"BSTAR":0.00022876362,"MEAN_MOTION_DOT":1.467e-5,"MEAN_MOTION_DDOT":0},{"OBJECT_NAME":"LYRA-4","OBJECT_ID":"2025-140A","EPOCH":"2026-03-09T22:14:48.302880","MEAN_MOTION":14.72230607,"ECCENTRICITY":0.00130646,"INCLINATION":95.9893,"RA_OF_ASC_NODE":215.2508,"ARG_OF_PERICENTER":170.6132,"MEAN_ANOMALY":189.5328,"EPHEMERIS_TYPE":0,"CLASSIFICATION_TYPE":"U","NORAD_CAT_ID":64691,"ELEMENT_SET_NO":999,"REV_AT_EPOCH":3745,"BSTAR":0.00032811988,"MEAN_MOTION_DOT":2.043e-5,"MEAN_MOTION_DDOT":0}]
